1 37673U 11024A   14031.67424955  .00000586  00000-0  10051-3 0  9994
2 37673 098.0130 040.8330 0001470 103.5168 030.9771 14.72281600142143
